FORESAIL-1 PRIME        
1 66778U 25276DS  26154.88437377  .00005984  00000+0  29269-3 0  9997
2 66778  97.4202 228.3996 0003556 131.6607 228.4932 15.18574549 28382
